NORAD_CAT_ID,OBJECT_NAME,OBJECT_TYPE,EPOCH,MEAN_MOTION,ECCENTRICITY,INCLINATION,RA_OF_ASC_NODE,ARG_OF_PERICENTER,MEAN_ANOMALY,BSTAR,MEAN_MOTION_DOT,MEAN_MOTION_DDOT,TLE_LINE0,TLE_LINE1,TLE_LINE2,SEMIMAJOR_AXIS,PERIOD,APOGEE,PERIGEE,DECAYED
51736.0,STARLINK-3447,PAYLOAD,2023-12-03 13:54:34,15.08804255,0.0002019,53.216,72.2464,148.8184,211.2928,-0.00054456,-8.936e-05,0.0,0 STARLINK-3447,1 51736U 22016Y   23337.57956159 -.00008936  00000-0 -54456-3 0  9993,2 51736  53.2160  72.2464 0002019 148.8184 211.2928 15.08804255 98697,6917.99,95.44,541.251,538.458,0.0
51736.0,STARLINK-3447,PAYLOAD,2023-12-03 15:29:57,15.08798227,0.0001432,53.2166,71.951,112.7983,247.316,-0.00044409,-7.34e-05,0.0,0 STARLINK-3447,1 51736U 22016Y   23337.64580847 -.00007340  00000-0 -44409-3 0  9993,2 51736  53.2166  71.9510 0001432 112.7983 247.3160 15.08798227 99832,6918.008,95.44,540.864,538.882,0.0
51736.0,STARLINK-3447,PAYLOAD,2023-12-04 12:10:00,15.08825783,0.0001502,53.2161,68.0885,97.7975,262.3188,0.0012452,0.00019577,0.0,0 STARLINK-3447,1 51736U 22016Y   23338.50694766  .00019577  00000-0  12452-2 0  9990,2 51736  53.2161  68.0885 0001502  97.7975 262.3188 15.08825783 99969,6917.924,95.438,540.828,538.75,0.0
51736.0,STARLINK-3447,PAYLOAD,2023-12-04 15:20:46,15.08839028,0.0001502,53.216,67.494,96.1822,263.9342,0.0016276,0.0002571,0.0,0 STARLINK-3447,1 51736U 22016Y   23338.63942762  .00025710  00000-0  16276-2 0  9990,2 51736  53.2160  67.4940 0001502  96.1822 263.9342 15.08839028 98850,6917.883,95.438,540.787,538.709,0.0
51736.0,STARLINK-3447,PAYLOAD,2023-12-05 12:00:46,15.08876769,0.0001538,53.216,63.628,95.1101,265.0067,0.0015281,0.0002414,0.0,0 STARLINK-3447,1 51736U 22016Y   23339.50053703  .00024140  00000-0  15281-2 0  9996,2 51736  53.2160  63.6280 0001538  95.1101 265.0067 15.08876769 98987,6917.768,95.435,540.697,538.569,0.0
51736.0,STARLINK-3447,PAYLOAD,2023-12-06 11:51:32,15.08863908,0.000158,53.217,59.1661,98.1901,261.927,0.00043443,6.637e-05,0.0,0 STARLINK-3447,1 51736U 22016Y   23340.49412650  .00006637  00000-0  43443-3 0  9999,2 51736  53.2170  59.1661 0001580  98.1901 261.9270 15.08863908100266,6917.807,95.436,540.765,538.579,0.0
51736.0,STARLINK-3447,PAYLOAD,2023-12-07 05:20:46,15.08849943,0.0001885,53.2181,55.8989,79.2644,280.8561,0.00026966,4.007e-05,0.0,0 STARLINK-3447,1 51736U 22016Y   23341.22276596  .00004007  00000-0  26966-3 0  9998,2 51736  53.2181  55.8989 0001885  79.2644 280.8561 15.08849943100374,6917.85,95.437,541.019,538.411,0.0
51736.0,STARLINK-3447,PAYLOAD,2023-12-07 11:42:19,15.08852271,0.0001619,53.2184,54.7067,103.171,256.9463,-7.2852e-05,-1.448e-05,0.0,0 STARLINK-3447,1 51736U 22016Y   23341.48772233 -.00001448  00000-0 -72852-4 0  9999,2 51736  53.2184  54.7067 0001619 103.1710 256.9463 15.08852271 99288,6917.843,95.437,540.828,538.588,0.0
51736.0,STARLINK-3447,PAYLOAD,2023-12-08 11:33:08,15.08820102,0.0001569,53.2185,50.2458,111.8432,248.2727,-0.00020035,-3.473e-05,0.0,0 STARLINK-3447,1 51736U 22016Y   23342.48134376 -.00003473  00000-0 -20035-3 0  9995,2 51736  53.2185  50.2458 0001569 111.8432 248.2727 15.08820102100564,6917.941,95.439,540.892,538.721,0.0
51736.0,STARLINK-3447,PAYLOAD,2023-12-09 11:23:53,15.08839295,0.0001506,53.2186,45.7872,96.1309,263.9855,5.9151e-05,6.54e-06,0.0,0 STARLINK-3447,1 51736U 22016Y   23343.47492778  .00000654  00000-0  59151-4 0  9996,2 51736  53.2186  45.7872 0001506  96.1309 263.9855 15.08839295100719,6917.883,95.438,540.789,538.706,0.0
51736.0,STARLINK-3447,PAYLOAD,2023-12-11 11:05:27,15.08841769,0.0001475,53.2185,36.8632,79.7921,280.3237,7.3012e-05,8.74e-06,0.0,0 STARLINK-3447,1 51736U 22016Y   23345.46212912  .00000874  00000-0  73012-4 0  9993,2 51736  53.2185  36.8632 0001475  79.7921 280.3237 15.08841769101015,6917.875,95.437,540.76,538.72,0.0
51736.0,STARLINK-3447,PAYLOAD,2023-12-12 10:56:15,15.08839458,0.0001709,53.2193,32.4041,67.3105,292.8068,4.7978e-05,4.76e-06,0.0,0 STARLINK-3447,1 51736U 22016Y   23346.45573379  .00000476  00000-0  47978-4 0  9990,2 51736  53.2193  32.4041 0001709  67.3105 292.8068 15.08839458101165,6917.882,95.438,540.929,538.565,0.0
51736.0,STARLINK-3447,PAYLOAD,2023-12-13 09:11:38,15.08844617,0.0001716,53.2191,28.242,68.3268,291.7906,7.7074e-05,9.39e-06,0.0,0 STARLINK-3447,1 51736U 22016Y   23347.38308882  .00000939  00000-0  77074-4 0  9992,2 51736  53.2191  28.2420 0001716  68.3268 291.7906 15.08844617100178,6917.866,95.437,540.918,538.544,0.0
51736.0,STARLINK-3447,PAYLOAD,2023-12-14 09:02:25,15.08842558,0.0001681,53.2187,23.7821,71.3037,288.8138,6.3572e-05,7.24e-06,0.0,0 STARLINK-3447,1 51736U 22016Y   23348.37668966  .00000724  00000-0  63572-4 0  9994,2 51736  53.2187  23.7821 0001681  71.3037 288.8138 15.08842558100320,6917.873,95.437,540.9,538.575,0.0
51736.0,STARLINK-3447,PAYLOAD,2023-12-15 08:53:13,15.08837815,0.0001618,53.2189,19.321,96.9919,263.1257,3.3881e-06,-2.34e-06,0.0,0 STARLINK-3447,1 51736U 22016Y   23349.37029291 -.00000234  00000-0  33881-5 0  9995,2 51736  53.2189  19.3210 0001618  96.9919 263.1257 15.08837815101607,6917.887,95.438,540.871,538.633,0.0
51736.0,STARLINK-3447,PAYLOAD,2023-12-16 05:33:13,15.08838632,0.0001781,53.2191,15.4589,113.3143,246.8036,7.4937e-05,9.05e-06,0.0,0 STARLINK-3447,1 51736U 22016Y   23350.23141121  .00000905  00000-0  74937-4 0  9999,2 51736  53.2191  15.4589 0001781 113.3143 246.8036 15.08838632100600,6917.885,95.438,540.982,538.517,0.0
51736.0,STARLINK-3447,PAYLOAD,2023-12-16 23:02:28,15.08835527,0.0001934,53.2198,12.1911,121.1054,239.0128,5.802e-05,6.35e-06,0.0,0 STARLINK-3447,1 51736U 22016Y   23350.96005502  .00000635  00000-0  58020-4 0  9996,2 51736  53.2198  12.1911 0001934 121.1054 239.0128 15.08835527101841,6917.894,95.438,541.097,538.421,0.0
51736.0,STARLINK-3447,PAYLOAD,2023-12-17 06:59:24,15.08834971,0.0001757,53.2186,10.7,113.9425,246.1751,5.3463e-05,5.63e-06,0.0,0 STARLINK-3447,1 51736U 22016Y   23351.29125686  .00000563  00000-0  53463-4 0  9995,2 51736  53.2186  10.7000 0001757 113.9425 246.1751 15.08834971100768,6917.896,95.438,540.976,538.545,0.0
51736.0,STARLINK-3447,PAYLOAD,2023-12-18 06:50:10,15.08846998,0.0001789,53.2186,6.2394,115.3584,244.7593,0.00010577,1.396e-05,0.0,0 STARLINK-3447,1 51736U 22016Y   23352.28484856  .00001396  00000-0  10577-3 0  9995,2 51736  53.2186   6.2394 0001789 115.3584 244.7593 15.08846998102044,6917.859,95.437,540.962,538.486,0.0
51736.0,STARLINK-3447,PAYLOAD,2023-12-18 22:44:03,15.08835234,0.0001923,53.2181,3.2619,127.274,232.8428,5.4368e-05,5.77e-06,0.0,0 STARLINK-3447,1 51736U 22016Y   23352.94725710  .00000577  00000-0  54368-4 0  9992,2 51736  53.2181   3.2619 0001923 127.2740 232.8428 15.08835234102149,6917.895,95.438,541.09,538.43,0.0
51736.0,STARLINK-3447,PAYLOAD,2023-12-19 08:16:22,15.08832541,0.0001444,53.2183,1.4812,98.6386,261.477,2.979e-05,1.86e-06,0.0,0 STARLINK-3447,1 51736U 22016Y   23353.34470365  .00000186  00000-0  29790-4 0  9997,2 51736  53.2183   1.4812 0001444  98.6386 261.4770 15.08832541102204,6917.903,95.438,540.767,538.769,0.0
51736.0,STARLINK-3447,PAYLOAD,2023-12-20 08:07:09,15.08837947,0.0001586,53.2188,357.0232,87.001,273.1164,5.0762e-06,-2.07e-06,0.0,0 STARLINK-3447,1 51736U 22016Y   23354.33830633 -.00000207  00000-0  50762-5 0  9994,2 51736  53.2188 357.0232 0001586  87.0010 273.1164 15.08837947101221,6917.887,95.438,540.849,538.654,0.0
51736.0,STARLINK-3447,PAYLOAD,2023-12-20 22:25:37,15.08838465,0.0001411,53.218,354.3494,83.0548,277.0604,0.00018265,2.62e-05,0.0,0 STARLINK-3447,1 51736U 22016Y   23354.93446330  .00002620  00000-0  18265-3 0  9997,2 51736  53.2180 354.3494 0001411  83.0548 277.0604 15.08838465102445,6917.885,95.438,540.726,538.774,0.0
51736.0,STARLINK-3447,PAYLOAD,2023-12-21 06:22:33,15.08850772,0.0001438,53.2171,352.8615,85.7099,274.4057,0.00039847,6.061e-05,0.0,0 STARLINK-3447,1 51736U 22016Y   23355.26566119  .00006061  00000-0  39847-3 0  9994,2 51736  53.2171 352.8615 0001438  85.7099 274.4057 15.08850772101360,6917.847,95.437,540.707,538.718,0.0
51736.0,STARLINK-3447,PAYLOAD,2023-12-22 03:02:34,15.08842391,0.0001212,53.2184,348.9939,99.144,260.969,0.00010514,1.386e-05,0.0,0 STARLINK-3447,1 51736U 22016Y   23356.12678519  .00001386  00000-0  10514-3 0  9993,2 51736  53.2184 348.9939 0001212  99.1440 260.9690 15.08842391102629,6917.873,95.437,540.577,538.9,0.0
51736.0,STARLINK-3447,PAYLOAD,2023-12-22 06:13:20,15.08846674,0.0001277,53.2178,348.3933,96.1861,263.9277,0.00014779,2.065e-05,0.0,0 STARLINK-3447,1 51736U 22016Y   23356.25926256  .00002065  00000-0  14779-3 0  9993,2 51736  53.2178 348.3933 0001277  96.1861 263.9277 15.08846674101514,6917.86,95.437,540.608,538.842,0.0
51736.0,STARLINK-3447,PAYLOAD,2023-12-23 09:14:53,15.08844698,0.000168,53.2181,343.335,127.3002,232.8144,7.1209e-05,8.46e-06,0.0,0 STARLINK-3447,1 51736U 22016Y   23357.38534063  .00000846  00000-0  71209-4 0  9996,2 51736  53.2181 343.3350 0001680 127.3002 232.8144 15.08844698102814,6917.866,95.437,540.893,538.569,0.0
51736.0,STARLINK-3447,PAYLOAD,2023-12-24 05:54:54,15.08847045,0.0001393,53.219,339.4682,90.8972,269.218,0.00021454,3.129e-05,0.0,0 STARLINK-3447,1 51736U 22016Y   23358.24646164  .00003129  00000-0  21454-3 0  9991,2 51736  53.2190 339.4682 0001393  90.8972 269.2180 15.08847045101811,6917.859,95.437,540.688,538.76,0.0
51736.0,STARLINK-3447,PAYLOAD,2023-12-25 04:10:18,15.08842754,0.0001537,53.2184,335.3057,97.7814,262.3352,0.00010729,1.42e-05,0.0,0 STARLINK-3447,1 51736U 22016Y   23359.17382416  .00001420  00000-0  10729-3 0  9996,2 51736  53.2184 335.3057 0001537  97.7814 262.3352 15.08842754103084,6917.872,95.437,540.8,538.674,0.0
51736.0,STARLINK-3447,PAYLOAD,2023-12-25 07:21:04,15.08846632,0.0001464,53.2186,334.7125,87.003,273.1129,0.00014127,1.961e-05,0.0,0 STARLINK-3447,1 51736U 22016Y   23359.30630230  .00001961  00000-0  14127-3 0  9997,2 51736  53.2186 334.7125 0001464  87.0030 273.1129 15.08846632101973,6917.86,95.437,540.738,538.712,0.0
